[{"CCSDS_OMM_VERS":"3.0","COMMENT":"GENERATED VIA SPACE-TRACK.ORG API","CREATION_DATE":"2025-08-07T02:11:08","ORIGINATOR":"18 SPCS","OBJECT_NAME":"COSMOS 2251 DEB","OBJECT_ID":"1993-036BYC","CENTER_NAME":"EARTH","REF_FRAME":"TEME","TIME_SYSTEM":"UTC","MEAN_ELEMENT_THEORY":"SGP4","EPOCH":"2023-02-16T16:08:59.102592","MEAN_MOTION":"14.43977219","ECCENTRICITY":"0.00668370","INCLINATION":"74.0361","RA_OF_ASC_NODE":"29.4338","ARG_OF_PERICENTER":"343.6622","MEAN_ANOMALY":"16.2379","EPHEMERIS_TYPE":"0","CLASSIFICATION_TYPE":"U","NORAD_CAT_ID":"47072","ELEMENT_SET_NO":"999","REV_AT_EPOCH":"46269","BSTAR":"0.00709450000000","MEAN_MOTION_DOT":"0.00024971","MEAN_MOTION_DDOT":"0.0000000000000","SEMIMAJOR_AXIS":"7123.525","PERIOD":"99.725","APOAPSIS":"793.001","PERIAPSIS":"697.778","OBJECT_TYPE":"DEBRIS","RCS_SIZE":"SMALL","COUNTRY_CODE":"CIS","LAUNCH_DATE":"1993-06-16","SITE":"PKMTR","DECAY_DATE":null,"FILE":"4806584","GP_ID":"294480122","TLE_LINE0":"0 COSMOS 2251 DEB","TLE_LINE1":"1 47072U 93036BYC 23047.67290628  .00024971  00000-0  70945-2 0  9997","TLE_LINE2":"2 47072  74.0361  29.4338 0066837 343.6622  16.2379 14.43977219462690"},{"CCSDS_OMM_VERS":"3.0","COMMENT":"GENERATED VIA SPACE-TRACK.ORG API","CREATION_DATE":"2026-03-28T11:26:42","ORIGINATOR":"18 SPCS","OBJECT_NAME":"COSMOS 2251 DEB","OBJECT_ID":"1993-036BYD","CENTER_NAME":"EARTH","REF_FRAME":"TEME","TIME_SYSTEM":"UTC","MEAN_ELEMENT_THEORY":"SGP4","EPOCH":"2026-03-28T03:04:42.953088","MEAN_MOTION":"14.04968471","ECCENTRICITY":"0.01589856","INCLINATION":"74.0876","RA_OF_ASC_NODE":"18.4645","ARG_OF_PERICENTER":"30.8562","MEAN_ANOMALY":"330.1799","EPHEMERIS_TYPE":"0","CLASSIFICATION_TYPE":"U","NORAD_CAT_ID":"47073","ELEMENT_SET_NO":"999","REV_AT_EPOCH":"61841","BSTAR":"0.00087030244000","MEAN_MOTION_DOT":"0.00001545","MEAN_MOTION_DDOT":"0.0000000000000","SEMIMAJOR_AXIS":"7254.778","PERIOD":"102.493","APOAPSIS":"991.983","PERIAPSIS":"761.302","OBJECT_TYPE":"DEBRIS","RCS_SIZE":"SMALL","COUNTRY_CODE":"CIS","LAUNCH_DATE":"1993-06-16","SITE":"PKMTR","DECAY_DATE":null,"FILE":"5103506","GP_ID":"317403563","TLE_LINE0":"0 COSMOS 2251 DEB","TLE_LINE1":"1 47073U 93036BYD 26087.12827492  .00001545  00000-0  87030-3 0  9996","TLE_LINE2":"2 47073  74.0876  18.4645 0158986  30.8562 330.1799 14.04968471618410"},{"CCSDS_OMM_VERS":"3.0","COMMENT":"GENERATED VIA SPACE-TRACK.ORG API","CREATION_DATE":"2026-03-25T04:32:27","ORIGINATOR":"18 SPCS","OBJECT_NAME":"COSMOS 2251 DEB","OBJECT_ID":"1993-036BYE","CENTER_NAME":"EARTH","REF_FRAME":"TEME","TIME_SYSTEM":"UTC","MEAN_ELEMENT_THEORY":"SGP4","EPOCH":"2026-03-23T21:13:34.081536","MEAN_MOTION":"14.36893109","ECCENTRICITY":"0.01368562","INCLINATION":"74.0927","RA_OF_ASC_NODE":"123.5374","ARG_OF_PERICENTER":"127.5295","MEAN_ANOMALY":"47.8669","EPHEMERIS_TYPE":"0","CLASSIFICATION_TYPE":"U","NORAD_CAT_ID":"47074","ELEMENT_SET_NO":"999","REV_AT_EPOCH":"4134","BSTAR":"0.00131974080000","MEAN_MOTION_DOT":"0.00004324","MEAN_MOTION_DDOT":"0.0000000000000","SEMIMAJOR_AXIS":"7146.919","PERIOD":"100.216","APOAPSIS":"866.594","PERIAPSIS":"670.974","OBJECT_TYPE":"DEBRIS","RCS_SIZE":"SMALL","COUNTRY_CODE":"CIS","LAUNCH_DATE":"1993-06-16","SITE":"PKMTR","DECAY_DATE":null,"FILE":"5096755","GP_ID":"316984635","TLE_LINE0":"0 COSMOS 2251 DEB","TLE_LINE1":"1 47074U 93036BYE 26082.88442224  .00004324  00000-0  13197-2 0  9991","TLE_LINE2":"2 47074  74.0927 123.5374 0136856 127.5295  47.8669 14.36893109 41344"},{"CCSDS_OMM_VERS":"3.0","COMMENT":"GENERATED VIA SPACE-TRACK.ORG API","CREATION_DATE":"2025-04-09T17:06:23","ORIGINATOR":"18 SPCS","OBJECT_NAME":"COSMOS 2251 DEB","OBJECT_ID":"1993-036BYF","CENTER_NAME":"EARTH","REF_FRAME":"TEME","TIME_SYSTEM":"UTC","MEAN_ELEMENT_THEORY":"SGP4","EPOCH":"2022-11-06T10:27:45.504576","MEAN_MOTION":"14.70027996","ECCENTRICITY":"0.00116460","INCLINATION":"73.9940","RA_OF_ASC_NODE":"310.8101","ARG_OF_PERICENTER":"187.2089","MEAN_ANOMALY":"323.7360","EPHEMERIS_TYPE":"0","CLASSIFICATION_TYPE":"U","NORAD_CAT_ID":"47075","ELEMENT_SET_NO":"999","REV_AT_EPOCH":"34866","BSTAR":"0.00372340000000","MEAN_MOTION_DOT":"0.00022412","MEAN_MOTION_DDOT":"0.0000000000000","SEMIMAJOR_AXIS":"7039.116","PERIOD":"97.957","APOAPSIS":"669.178","PERIAPSIS":"652.783","OBJECT_TYPE":"DEBRIS","RCS_SIZE":"SMALL","COUNTRY_CODE":"CIS","LAUNCH_DATE":"1993-06-16","SITE":"PKMTR","DECAY_DATE":"2024-01-23","FILE":"4696132","GP_ID":"285188617","TLE_LINE0":"0 COSMOS 2251 DEB","TLE_LINE1":"1 47075U 93036BYF 22310.43594334  .00022412  00000-0  37234-2 0  9999","TLE_LINE2":"2 47075  73.9940 310.8101 0011646 187.2089 323.7360 14.70027996348660"},{"CCSDS_OMM_VERS":"3.0","COMMENT":"GENERATED VIA SPACE-TRACK.ORG API","CREATION_DATE":"2025-04-09T17:06:23","ORIGINATOR":"18 SPCS","OBJECT_NAME":"COSMOS 2251 DEB","OBJECT_ID":"1993-036BYG","CENTER_NAME":"EARTH","REF_FRAME":"TEME","TIME_SYSTEM":"UTC","MEAN_ELEMENT_THEORY":"SGP4","EPOCH":"2022-04-21T08:46:02.252640","MEAN_MOTION":"14.50303822","ECCENTRICITY":"0.00303230","INCLINATION":"74.0246","RA_OF_ASC_NODE":"126.9952","ARG_OF_PERICENTER":"151.4879","MEAN_ANOMALY":"269.5891","EPHEMERIS_TYPE":"0","CLASSIFICATION_TYPE":"U","NORAD_CAT_ID":"47076","ELEMENT_SET_NO":"999","REV_AT_EPOCH":"50950","BSTAR":"0.00150150000000","MEAN_MOTION_DOT":"0.00005864","MEAN_MOTION_DDOT":"0.0000000000000","SEMIMAJOR_AXIS":"7102.793","PERIOD":"99.290","APOAPSIS":"746.196","PERIAPSIS":"703.121","OBJECT_TYPE":"DEBRIS","RCS_SIZE":"SMALL","COUNTRY_CODE":"CIS","LAUNCH_DATE":"1993-06-16","SITE":"PKMTR","DECAY_DATE":"2024-11-02","FILE":"4696132","GP_ID":"285188118","TLE_LINE0":"0 COSMOS 2251 DEB","TLE_LINE1":"1 47076U 93036BYG 22111.36530385  .00005864  00000-0  15015-2 0  9992","TLE_LINE2":"2 47076  74.0246 126.9952 0030323 151.4879 269.5891 14.50303822509506"},{"CCSDS_OMM_VERS":"3.0","COMMENT":"GENERATED VIA SPACE-TRACK.ORG API","CREATION_DATE":"2023-02-16T07:06:13","ORIGINATOR":"18 SPCS","OBJECT_NAME":"COSMOS 2251 DEB","OBJECT_ID":"1993-036BYH","CENTER_NAME":"EARTH","REF_FRAME":"TEME","TIME_SYSTEM":"UTC","MEAN_ELEMENT_THEORY":"SGP4","EPOCH":"2023-02-15T20:56:34.255680","MEAN_MOTION":"14.76028319","ECCENTRICITY":"0.00754330","INCLINATION":"74.1185","RA_OF_ASC_NODE":"103.9288","ARG_OF_PERICENTER":"300.0472","MEAN_ANOMALY":"174.9042","EPHEMERIS_TYPE":"0","CLASSIFICATION_TYPE":"U","NORAD_CAT_ID":"47077","ELEMENT_SET_NO":"999","REV_AT_EPOCH":"55864","BSTAR":"0.00743840000000","MEAN_MOTION_DOT":"0.00054074","MEAN_MOTION_DDOT":"0.0000000000000","SEMIMAJOR_AXIS":"7020.026","PERIOD":"97.559","APOAPSIS":"694.845","PERIAPSIS":"588.937","OBJECT_TYPE":"DEBRIS","RCS_SIZE":"SMALL","COUNTRY_CODE":"CIS","LAUNCH_DATE":"1993-06-16","SITE":"PKMTR","DECAY_DATE":"2024-03-27","FILE":"3795549","GP_ID":"225559756","TLE_LINE0":"0 COSMOS 2251 DEB","TLE_LINE1":"1 47077U 93036BYH 23046.87261870  .00054074  00000-0  74384-2 0  9998","TLE_LINE2":"2 47077  74.1185 103.9288 0075433 300.0472 174.9042 14.76028319558648"},{"CCSDS_OMM_VERS":"3.0","COMMENT":"GENERATED VIA SPACE-TRACK.ORG API","CREATION_DATE":"2026-03-27T22:36:20","ORIGINATOR":"18 SPCS","OBJECT_NAME":"COSMOS 2251 DEB","OBJECT_ID":"1993-036BYJ","CENTER_NAME":"EARTH","REF_FRAME":"TEME","TIME_SYSTEM":"UTC","MEAN_ELEMENT_THEORY":"SGP4","EPOCH":"2026-03-27T14:10:31.690848","MEAN_MOTION":"15.04490938","ECCENTRICITY":"0.00172230","INCLINATION":"74.0215","RA_OF_ASC_NODE":"27.0064","ARG_OF_PERICENTER":"115.0403","MEAN_ANOMALY":"61.6184","EPHEMERIS_TYPE":"0","CLASSIFICATION_TYPE":"U","NORAD_CAT_ID":"47116","ELEMENT_SET_NO":"999","REV_AT_EPOCH":"61084","BSTAR":"0.00206030000000","MEAN_MOTION_DOT":"0.00029022","MEAN_MOTION_DDOT":"0.0000000000000","SEMIMAJOR_AXIS":"6931.206","PERIOD":"95.713","APOAPSIS":"565.008","PERIAPSIS":"541.133","OBJECT_TYPE":"DEBRIS","RCS_SIZE":"SMALL","COUNTRY_CODE":"CIS","LAUNCH_DATE":"1993-06-16","SITE":"PKMTR","DECAY_DATE":null,"FILE":"5101661","GP_ID":"317309007","TLE_LINE0":"0 COSMOS 2251 DEB","TLE_LINE1":"1 47116U 93036BYJ 26086.59064457  .00029022  00000-0  20603-2 0  9990","TLE_LINE2":"2 47116  74.0215  27.0064 0017223 115.0403  61.6184 15.04490938610846"},{"CCSDS_OMM_VERS":"3.0","COMMENT":"GENERATED VIA SPACE-TRACK.ORG API","CREATION_DATE":"2022-05-05T17:44:53","ORIGINATOR":"18 SPCS","OBJECT_NAME":"COSMOS 2251 DEB","OBJECT_ID":"1993-036BYK","CENTER_NAME":"EARTH","REF_FRAME":"TEME","TIME_SYSTEM":"UTC","MEAN_ELEMENT_THEORY":"SGP4","EPOCH":"2022-05-05T09:00:45.570816","MEAN_MOTION":"14.94530804","ECCENTRICITY":"0.00076180","INCLINATION":"74.0100","RA_OF_ASC_NODE":"161.3820","ARG_OF_PERICENTER":"271.5491","MEAN_ANOMALY":"88.4820","EPHEMERIS_TYPE":"0","CLASSIFICATION_TYPE":"U","NORAD_CAT_ID":"47117","ELEMENT_SET_NO":"999","REV_AT_EPOCH":"41925","BSTAR":"0.00863100000000","MEAN_MOTION_DOT":"0.00094576","MEAN_MOTION_DDOT":"0.0000000000000","SEMIMAJOR_AXIS":"6961.966","PERIOD":"96.351","APOAPSIS":"589.135","PERIAPSIS":"578.528","OBJECT_TYPE":"DEBRIS","RCS_SIZE":"SMALL","COUNTRY_CODE":"CIS","LAUNCH_DATE":"1993-06-16","SITE":"PKMTR","DECAY_DATE":"2022-10-20","FILE":"3430353","GP_ID":"202769891","TLE_LINE0":"0 COSMOS 2251 DEB","TLE_LINE1":"1 47117U 93036BYK 22125.37552744  .00094576  00000-0  86310-2 0  9991","TLE_LINE2":"2 47117  74.0100 161.3820 0007618 271.5491  88.4820 14.94530804419255"}]